{
  "type": "FeatureCollection",
  "features": [
    {
      "type": "Feature",
      "properties": {
        "norad_id": 34728,
        "name": "COSMOS 2251 DEB",
        "group": "cosmos-2251-debris",
        "lat": -70.75299415038796,
        "lon": 103.69435274547708,
        "alt_km": 681.17108250616,
        "timestamp": "2025-12-24T16:52:41.932513+00:00",
        "meta_object_name": "COSMOS 2251 DEB",
        "meta_object_id": "1993-036YW",
        "meta_epoch": "2025-12-20T02:20:18.568032",
        "meta_mean_motion": 14.70905998,
        "meta_eccentricity": 0.00414013,
        "meta_inclination": 74.0163,
        "meta_ra_of_asc_node": 237.4676,
        "meta_arg_of_pericenter": 33.08,
        "meta_mean_anomaly": 327.2947,
        "meta_ephemeris_type": 0,
        "meta_classification_type": "U",
        "meta_norad_cat_id": 34728,
        "meta_element_set_no": 999,
        "meta_rev_at_epoch": 88908,
        "meta_bstar": 0.00043281985,
        "meta_mean_motion_dot": 2.653e-05,
        "meta_mean_motion_ddot": 0,
        "tle_line1": "1 34728U 93036YW  25354.09743713  .00002653  00000+0  43282-3 0  9995",
        "tle_line2": "2 34728  74.0163 237.4676 0041401  33.0800 327.2947 14.70905998889085"
      },
      "geometry": {
        "type": "Point",
        "coordinates": [
          103.69435274547708,
          -70.75299415038796
        ]
      }
    },
    {
      "type": "Feature",
      "properties": {
        "norad_id": 34729,
        "name": "COSMOS 2251 DEB",
        "group": "cosmos-2251-debris",
        "lat": 66.24320024123419,
        "lon": 15.35253996364534,
        "alt_km": 604.5329666358084,
        "timestamp": "2025-12-24T16:52:41.932524+00:00",
        "meta_object_name": "COSMOS 2251 DEB",
        "meta_object_id": "1993-036YX",
        "meta_epoch": "2025-12-24T05:18:14.093280",
        "meta_mean_motion": 14.83114289,
        "meta_eccentricity": 0.00120023,
        "meta_inclination": 74.0186,
        "meta_ra_of_asc_node": 335.6824,
        "meta_arg_of_pericenter": 88.3709,
        "meta_mean_anomaly": 290.0343,
        "meta_ephemeris_type": 0,
        "meta_classification_type": "U",
        "meta_norad_cat_id": 34729,
        "meta_element_set_no": 999,
        "meta_rev_at_epoch": 88628,
        "meta_bstar": 0.0022211559,
        "meta_mean_motion_dot": 0.00018141,
        "meta_mean_motion_ddot": 0,
        "tle_line1": "1 34729U 93036YX  25358.22099645  .00018141  00000+0  22212-2 0  9991",
        "tle_line2": "2 34729  74.0186 335.6824 0012002  88.3709 290.0343 14.83114289886288"
      },
      "geometry": {
        "type": "Point",
        "coordinates": [
          15.35253996364534,
          66.24320024123419
        ]
      }
    },
    {
      "type": "Feature",
      "properties": {
        "norad_id": 34732,
        "name": "COSMOS 2251 DEB",
        "group": "cosmos-2251-debris",
        "lat": -23.079920942841323,
        "lon": -102.16566739792603,
        "alt_km": 711.9792418237503,
        "timestamp": "2025-12-24T16:52:41.932535+00:00",
        "meta_object_name": "COSMOS 2251 DEB",
        "meta_object_id": "1993-036ZA",
        "meta_epoch": "2025-12-22T16:32:23.959680",
        "meta_mean_motion": 14.47311087,
        "meta_eccentricity": 0.00401751,
        "meta_inclination": 74.0456,
        "meta_ra_of_asc_node": 74.5946,
        "meta_arg_of_pericenter": 223.757,
        "meta_mean_anomaly": 290.4905,
        "meta_ephemeris_type": 0,
        "meta_classification_type": "U",
        "meta_norad_cat_id": 34732,
        "meta_element_set_no": 999,
        "meta_rev_at_epoch": 88287,
        "meta_bstar": 0.00012395205,
        "meta_mean_motion_dot": 4.3e-06,
        "meta_mean_motion_ddot": 0,
        "tle_line1": "1 34732U 93036ZA  25356.68916620  .00000430  00000+0  12395-3 0  9998",
        "tle_line2": "2 34732  74.0456  74.5946 0040175 223.7570 290.4905 14.47311087882873"
      },
      "geometry": {
        "type": "Point",
        "coordinates": [
          -102.16566739792603,
          -23.079920942841323
        ]
      }
    },
    {
      "type": "Feature",
      "properties": {
        "norad_id": 34736,
        "name": "COSMOS 2251 DEB",
        "group": "cosmos-2251-debris",
        "lat": -10.455114192094738,
        "lon": -167.1554286250428,
        "alt_km": 401.3764211717107,
        "timestamp": "2025-12-24T16:52:41.932546+00:00",
        "meta_object_name": "COSMOS 2251 DEB",
        "meta_object_id": "1993-036ZE",
        "meta_epoch": "2025-12-24T02:11:47.071392",
        "meta_mean_motion": 15.58131671,
        "meta_eccentricity": 0.00117758,
        "meta_inclination": 73.9978,
        "meta_ra_of_asc_node": 11.1707,
        "meta_arg_of_pericenter": 338.3861,
        "meta_mean_anomaly": 21.6858,
        "meta_ephemeris_type": 0,
        "meta_classification_type": "U",
        "meta_norad_cat_id": 34736,
        "meta_element_set_no": 999,
        "meta_rev_at_epoch": 88624,
        "meta_bstar": 0.0082483738,
        "meta_mean_motion_dot": 0.00677638,
        "meta_mean_motion_ddot": 0,
        "tle_line1": "1 34736U 93036ZE  25358.09151703  .00677638  00000+0  82484-2 0  9997",
        "tle_line2": "2 34736  73.9978  11.1707 0011775 338.3861  21.6858 15.58131671886244"
      },
      "geometry": {
        "type": "Point",
        "coordinates": [
          -167.1554286250428,
          -10.455114192094738
        ]
      }
    },
    {
      "type": "Feature",
      "properties": {
        "norad_id": 34738,
        "name": "COSMOS 2251 DEB",
        "group": "cosmos-2251-debris",
        "lat": -12.79770434408032,
        "lon": -55.36012777770499,
        "alt_km": 731.0339367286633,
        "timestamp": "2025-12-24T16:52:41.932556+00:00",
        "meta_object_name": "COSMOS 2251 DEB",
        "meta_object_id": "1993-036ZG",
        "meta_epoch": "2025-12-23T18:44:43.283328",
        "meta_mean_motion": 14.4632643,
        "meta_eccentricity": 0.00475663,
        "meta_inclination": 74.0156,
        "meta_ra_of_asc_node": 122.6297,
        "meta_arg_of_pericenter": 266.8783,
        "meta_mean_anomaly": 167.0667,
        "meta_ephemeris_type": 0,
        "meta_classification_type": "U",
        "meta_norad_cat_id": 34738,
        "meta_element_set_no": 999,
        "meta_rev_at_epoch": 88018,
        "meta_bstar": 0.00030074639,
        "meta_mean_motion_dot": 1.066e-05,
        "meta_mean_motion_ddot": 0,
        "tle_line1": "1 34738U 93036ZG  25357.78105652  .00001066  00000+0  30075-3 0  9992",
        "tle_line2": "2 34738  74.0156 122.6297 0047566 266.8783 167.0667 14.46326430880188"
      },
      "geometry": {
        "type": "Point",
        "coordinates": [
          -55.36012777770499,
          -12.79770434408032
        ]
      }
    },
    {
      "type": "Feature",
      "properties": {
        "norad_id": 34750,
        "name": "COSMOS 2251 DEB",
        "group": "cosmos-2251-debris",
        "lat": -71.48174095370786,
        "lon": 120.69389489890416,
        "alt_km": 719.3066450082233,
        "timestamp": "2025-12-24T16:52:41.932567+00:00",
        "meta_object_name": "COSMOS 2251 DEB",
        "meta_object_id": "1993-036ZU",
        "meta_epoch": "2025-12-23T22:04:25.116096",
        "meta_mean_motion": 14.61427791,
        "meta_eccentricity": 0.0038348,
        "meta_inclination": 74.1068,
        "meta_ra_of_asc_node": 180.4654,
        "meta_arg_of_pericenter": 129.7082,
        "meta_mean_anomaly": 349.1592,
        "meta_ephemeris_type": 0,
        "meta_classification_type": "U",
        "meta_norad_cat_id": 34750,
        "meta_element_set_no": 999,
        "meta_rev_at_epoch": 88394,
        "meta_bstar": 0.0011786,
        "meta_mean_motion_dot": 5.872e-05,
        "meta_mean_motion_ddot": 0,
        "tle_line1": "1 34750U 93036ZU  25357.91973514  .00005872  00000+0  11786-2 0  9997",
        "tle_line2": "2 34750  74.1068 180.4654 0038348 129.7082 349.1592 14.61427791883947"
      },
      "geometry": {
        "type": "Point",
        "coordinates": [
          120.69389489890416,
          -71.48174095370786
        ]
      }
    },
    {
      "type": "Feature",
      "properties": {
        "norad_id": 34752,
        "name": "COSMOS 2251 DEB",
        "group": "cosmos-2251-debris",
        "lat": -68.327463749471,
        "lon": -69.91834818200299,
        "alt_km": 606.0835887349513,
        "timestamp": "2025-12-24T16:52:41.932577+00:00",
        "meta_object_name": "COSMOS 2251 DEB",
        "meta_object_id": "1993-036ZW",
        "meta_epoch": "2025-12-23T23:36:35.362368",
        "meta_mean_motion": 15.0017716,
        "meta_eccentricity": 0.0047465,
        "meta_inclination": 74.0139,
        "meta_ra_of_asc_node": 337.7159,
        "meta_arg_of_pericenter": 102.5373,
        "meta_mean_anomaly": 258.1129,
        "meta_ephemeris_type": 0,
        "meta_classification_type": "U",
        "meta_norad_cat_id": 34752,
        "meta_element_set_no": 999,
        "meta_rev_at_epoch": 90018,
        "meta_bstar": 0.00097369,
        "meta_mean_motion_dot": 0.00012441,
        "meta_mean_motion_ddot": 0,
        "tle_line1": "1 34752U 93036ZW  25357.98374262  .00012441  00000+0  97369-3 0  9993",
        "tle_line2": "2 34752  74.0139 337.7159 0047465 102.5373 258.1129 15.00177160900183"
      },
      "geometry": {
        "type": "Point",
        "coordinates": [
          -69.91834818200299,
          -68.327463749471
        ]
      }
    }
  ]
}